<?xml version="1.0" encoding="UTF-8"?>
<ndm xmlns:xsi="http://www.w3.org/2001/XMLSchema-instance" xsi:noNamespaceSchemaLocation="https://sanaregistry.org/r/ndmxml_unqualified/ndmxml-2.0.0-master-2.0.xsd">
<omm id="CCSDS_OMM_VERS" version="2.0">
<header><CREATION_DATE/><ORIGINATOR/></header><body><segment><metadata><OBJECT_NAME>ORBCOMM FM24</OBJECT_NAME><OBJECT_ID>1998-053D</OBJECT_ID><CENTER_NAME>EARTH</CENTER_NAME><REF_FRAME>TEME</REF_FRAME><TIME_SYSTEM>UTC</TIME_SYSTEM><MEAN_ELEMENT_THEORY>SGP4</MEAN_ELEMENT_THEORY></metadata><data><meanElements><EPOCH>2024-05-27T12:44:47.055552</EPOCH><MEAN_MOTION>14.35772166</MEAN_MOTION><ECCENTRICITY>.0001311</ECCENTRICITY><INCLINATION>45.0087</INCLINATION><RA_OF_ASC_NODE>294.4140</RA_OF_ASC_NODE><ARG_OF_PERICENTER>158.0425</ARG_OF_PERICENTER><MEAN_ANOMALY>202.0479</MEAN_ANOMALY></meanElements><tleParameters><EPHEMERIS_TYPE>0</EPHEMERIS_TYPE><CLASSIFICATION_TYPE>U</CLASSIFICATION_TYPE><NORAD_CAT_ID>25478</NORAD_CAT_ID><ELEMENT_SET_NO>999</ELEMENT_SET_NO><REV_AT_EPOCH>34197</REV_AT_EPOCH><BSTAR>.54632E-3</BSTAR><MEAN_MOTION_DOT>.1453E-4</MEAN_MOTION_DOT><MEAN_MOTION_DDOT>0</MEAN_MOTION_DDOT></tleParameters></data></segment></body></omm>
<omm id="CCSDS_OMM_VERS" version="2.0">
<header><CREATION_DATE/><ORIGINATOR/></header><body><segment><metadata><OBJECT_NAME>ORBCOMM FM25</OBJECT_NAME><OBJECT_ID>1998-053E</OBJECT_ID><CENTER_NAME>EARTH</CENTER_NAME><REF_FRAME>TEME</REF_FRAME><TIME_SYSTEM>UTC</TIME_SYSTEM><MEAN_ELEMENT_THEORY>SGP4</MEAN_ELEMENT_THEORY></metadata><data><meanElements><EPOCH>2024-05-27T11:56:36.863232</EPOCH><MEAN_MOTION>14.35751315</MEAN_MOTION><ECCENTRICITY>.0003758</ECCENTRICITY><INCLINATION>45.0075</INCLINATION><RA_OF_ASC_NODE>292.8169</RA_OF_ASC_NODE><ARG_OF_PERICENTER>135.7386</ARG_OF_PERICENTER><MEAN_ANOMALY>224.3763</MEAN_ANOMALY></meanElements><tleParameters><EPHEMERIS_TYPE>0</EPHEMERIS_TYPE><CLASSIFICATION_TYPE>U</CLASSIFICATION_TYPE><NORAD_CAT_ID>25479</NORAD_CAT_ID><ELEMENT_SET_NO>999</ELEMENT_SET_NO><REV_AT_EPOCH>34226</REV_AT_EPOCH><BSTAR>.56985E-3</BSTAR><MEAN_MOTION_DOT>.1521E-4</MEAN_MOTION_DOT><MEAN_MOTION_DDOT>0</MEAN_MOTION_DDOT></tleParameters></data></segment></body></omm>
<omm id="CCSDS_OMM_VERS" version="2.0">
<header><CREATION_DATE/><ORIGINATOR/></header><body><segment><metadata><OBJECT_NAME>ORBCOMM FM26</OBJECT_NAME><OBJECT_ID>1998-053F</OBJECT_ID><CENTER_NAME>EARTH</CENTER_NAME><REF_FRAME>TEME</REF_FRAME><TIME_SYSTEM>UTC</TIME_SYSTEM><MEAN_ELEMENT_THEORY>SGP4</MEAN_ELEMENT_THEORY></metadata><data><meanElements><EPOCH>2024-05-27T15:36:01.993248</EPOCH><MEAN_MOTION>14.35182152</MEAN_MOTION><ECCENTRICITY>.0006133</ECCENTRICITY><INCLINATION>45.0069</INCLINATION><RA_OF_ASC_NODE>286.2890</RA_OF_ASC_NODE><ARG_OF_PERICENTER>149.0147</ARG_OF_PERICENTER><MEAN_ANOMALY>211.1063</MEAN_ANOMALY></meanElements><tleParameters><EPHEMERIS_TYPE>0</EPHEMERIS_TYPE><CLASSIFICATION_TYPE>U</CLASSIFICATION_TYPE><NORAD_CAT_ID>25480</NORAD_CAT_ID><ELEMENT_SET_NO>999</ELEMENT_SET_NO><REV_AT_EPOCH>34232</REV_AT_EPOCH><BSTAR>.49256E-3</BSTAR><MEAN_MOTION_DOT>.128E-4</MEAN_MOTION_DOT><MEAN_MOTION_DDOT>0</MEAN_MOTION_DDOT></tleParameters></data></segment></body></omm>
<omm id="CCSDS_OMM_VERS" version="2.0">
<header><CREATION_DATE/><ORIGINATOR/></header><body><segment><metadata><OBJECT_NAME>ORBCOMM FM27</OBJECT_NAME><OBJECT_ID>1998-053G</OBJECT_ID><CENTER_NAME>EARTH</CENTER_NAME><REF_FRAME>TEME</REF_FRAME><TIME_SYSTEM>UTC</TIME_SYSTEM><MEAN_ELEMENT_THEORY>SGP4</MEAN_ELEMENT_THEORY></metadata><data><meanElements><EPOCH>2024-05-27T11:39:44.503200</EPOCH><MEAN_MOTION>14.35737230</MEAN_MOTION><ECCENTRICITY>.0001658</ECCENTRICITY><INCLINATION>45.0061</INCLINATION><RA_OF_ASC_NODE>293.1361</RA_OF_ASC_NODE><ARG_OF_PERICENTER>219.2871</ARG_OF_PERICENTER><MEAN_ANOMALY>140.7857</MEAN_ANOMALY></meanElements><tleParameters><EPHEMERIS_TYPE>0</EPHEMERIS_TYPE><CLASSIFICATION_TYPE>U</CLASSIFICATION_TYPE><NORAD_CAT_ID>25481</NORAD_CAT_ID><ELEMENT_SET_NO>999</ELEMENT_SET_NO><REV_AT_EPOCH>34219</REV_AT_EPOCH><BSTAR>.50881E-3</BSTAR><MEAN_MOTION_DOT>.1343E-4</MEAN_MOTION_DOT><MEAN_MOTION_DDOT>0</MEAN_MOTION_DDOT></tleParameters></data></segment></body></omm>
<omm id="CCSDS_OMM_VERS" version="2.0">
<header><CREATION_DATE/><ORIGINATOR/></header><body><segment><metadata><OBJECT_NAME>ORBCOMM FM28</OBJECT_NAME><OBJECT_ID>1998-053H</OBJECT_ID><CENTER_NAME>EARTH</CENTER_NAME><REF_FRAME>TEME</REF_FRAME><TIME_SYSTEM>UTC</TIME_SYSTEM><MEAN_ELEMENT_THEORY>SGP4</MEAN_ELEMENT_THEORY></metadata><data><meanElements><EPOCH>2024-05-27T07:52:32.345760</EPOCH><MEAN_MOTION>14.36169715</MEAN_MOTION><ECCENTRICITY>.0004658</ECCENTRICITY><INCLINATION>45.0048</INCLINATION><RA_OF_ASC_NODE>232.2926</RA_OF_ASC_NODE><ARG_OF_PERICENTER>191.1974</ARG_OF_PERICENTER><MEAN_ANOMALY>168.8771</MEAN_ANOMALY></meanElements><tleParameters><EPHEMERIS_TYPE>0</EPHEMERIS_TYPE><CLASSIFICATION_TYPE>U</CLASSIFICATION_TYPE><NORAD_CAT_ID>25482</NORAD_CAT_ID><ELEMENT_SET_NO>999</ELEMENT_SET_NO><REV_AT_EPOCH>34284</REV_AT_EPOCH><BSTAR>.51853E-3</BSTAR><MEAN_MOTION_DOT>.1384E-4</MEAN_MOTION_DOT><MEAN_MOTION_DDOT>0</MEAN_MOTION_DDOT></tleParameters></data></segment></body></omm>
<omm id="CCSDS_OMM_VERS" version="2.0">
<header><CREATION_DATE/><ORIGINATOR/></header><body><segment><metadata><OBJECT_NAME>ORBCOMM FM30</OBJECT_NAME><OBJECT_ID>1999-065A</OBJECT_ID><CENTER_NAME>EARTH</CENTER_NAME><REF_FRAME>TEME</REF_FRAME><TIME_SYSTEM>UTC</TIME_SYSTEM><MEAN_ELEMENT_THEORY>SGP4</MEAN_ELEMENT_THEORY></metadata><data><meanElements><EPOCH>2024-05-27T06:17:39.997536</EPOCH><MEAN_MOTION>14.35312286</MEAN_MOTION><ECCENTRICITY>.000677</ECCENTRICITY><INCLINATION>45.0306</INCLINATION><RA_OF_ASC_NODE>113.6614</RA_OF_ASC_NODE><ARG_OF_PERICENTER>250.2587</ARG_OF_PERICENTER><MEAN_ANOMALY>109.7531</MEAN_ANOMALY></meanElements><tleParameters><EPHEMERIS_TYPE>0</EPHEMERIS_TYPE><CLASSIFICATION_TYPE>U</CLASSIFICATION_TYPE><NORAD_CAT_ID>25980</NORAD_CAT_ID><ELEMENT_SET_NO>999</ELEMENT_SET_NO><REV_AT_EPOCH>27896</REV_AT_EPOCH><BSTAR>.49967E-3</BSTAR><MEAN_MOTION_DOT>.1304E-4</MEAN_MOTION_DOT><MEAN_MOTION_DDOT>0</MEAN_MOTION_DDOT></tleParameters></data></segment></body></omm>
<omm id="CCSDS_OMM_VERS" version="2.0">
<header><CREATION_DATE/><ORIGINATOR/></header><body><segment><metadata><OBJECT_NAME>ORBCOMM FM31</OBJECT_NAME><OBJECT_ID>1999-065B</OBJECT_ID><CENTER_NAME>EARTH</CENTER_NAME><REF_FRAME>TEME</REF_FRAME><TIME_SYSTEM>UTC</TIME_SYSTEM><MEAN_ELEMENT_THEORY>SGP4</MEAN_ELEMENT_THEORY></metadata><data><meanElements><EPOCH>2024-05-27T13:49:13.975680</EPOCH><MEAN_MOTION>14.35308879</MEAN_MOTION><ECCENTRICITY>.0004499</ECCENTRICITY><INCLINATION>45.0226</INCLINATION><RA_OF_ASC_NODE>105.8616</RA_OF_ASC_NODE><ARG_OF_PERICENTER>279.6076</ARG_OF_PERICENTER><MEAN_ANOMALY>80.4264</MEAN_ANOMALY></meanElements><tleParameters><EPHEMERIS_TYPE>0</EPHEMERIS_TYPE><CLASSIFICATION_TYPE>U</CLASSIFICATION_TYPE><NORAD_CAT_ID>25981</NORAD_CAT_ID><ELEMENT_SET_NO>999</ELEMENT_SET_NO><REV_AT_EPOCH>27856</REV_AT_EPOCH><BSTAR>.47612E-3</BSTAR><MEAN_MOTION_DOT>.1236E-4</MEAN_MOTION_DOT><MEAN_MOTION_DDOT>0</MEAN_MOTION_DDOT></tleParameters></data></segment></body></omm>
<omm id="CCSDS_OMM_VERS" version="2.0">
<header><CREATION_DATE/><ORIGINATOR/></header><body><segment><metadata><OBJECT_NAME>ORBCOMM FM32</OBJECT_NAME><OBJECT_ID>1999-065C</OBJECT_ID><CENTER_NAME>EARTH</CENTER_NAME><REF_FRAME>TEME</REF_FRAME><TIME_SYSTEM>UTC</TIME_SYSTEM><MEAN_ELEMENT_THEORY>SGP4</MEAN_ELEMENT_THEORY></metadata><data><meanElements><EPOCH>2024-05-27T15:20:07.777824</EPOCH><MEAN_MOTION>14.34309064</MEAN_MOTION><ECCENTRICITY>.0007002</ECCENTRICITY><INCLINATION>45.0154</INCLINATION><RA_OF_ASC_NODE>119.4927</RA_OF_ASC_NODE><ARG_OF_PERICENTER>275.0989</ARG_OF_PERICENTER><MEAN_ANOMALY>84.9059</MEAN_ANOMALY></meanElements><tleParameters><EPHEMERIS_TYPE>0</EPHEMERIS_TYPE><CLASSIFICATION_TYPE>U</CLASSIFICATION_TYPE><NORAD_CAT_ID>25982</NORAD_CAT_ID><ELEMENT_SET_NO>999</ELEMENT_SET_NO><REV_AT_EPOCH>27933</REV_AT_EPOCH><BSTAR>.45824E-3</BSTAR><MEAN_MOTION_DOT>.1158E-4</MEAN_MOTION_DOT><MEAN_MOTION_DDOT>0</MEAN_MOTION_DDOT></tleParameters></data></segment></body></omm>

</ndm>
